[{"CCSDS_OMM_VERS":"2.0","COMMENT":"GENERATED VIA SPACE-TRACK.ORG API","CREATION_DATE":"2020-09-25T01:46:06","ORIGINATOR":"18 SPCS","OBJECT_NAME":"STARLINK-1098","OBJECT_ID":"2020-001D","CENTER_NAME":"EARTH","REF_FRAME":"TEME","TIME_SYSTEM":"UTC","MEAN_ELEMENT_THEORY":"SGP4","EPOCH":"2020-09-24T22:00:01.999584","MEAN_MOTION":"15.05560527","ECCENTRICITY":"0.00007060","INCLINATION":"52.9989","RA_OF_ASC_NODE":"288.0346","ARG_OF_PERICENTER":"109.6424","MEAN_ANOMALY":"255.1395","EPHEMERIS_TYPE":"0","CLASSIFICATION_TYPE":"U","NORAD_CAT_ID":"44917","ELEMENT_SET_NO":"999","REV_AT_EPOCH":"178","BSTAR":"0.00295700000000","MEAN_MOTION_DOT":"0.00043045","MEAN_MOTION_DDOT":"0.0000000000000","SEMIMAJOR_AXIS":"6927.922","PERIOD":"95.645","APOAPSIS":"550.276","PERIAPSIS":"549.298","OBJECT_TYPE":"PAYLOAD","RCS_SIZE":"LARGE","COUNTRY_CODE":"US","LAUNCH_DATE":"2020-01-07","SITE":"AFETR","DECAY_DATE":null,"FILE":"2832962","GP_ID":"162078144","TLE_LINE0":"0 STARLINK-1098","TLE_LINE1":"1 44917U 20001D   20268.91668981 +.00043045 +00000-0 +29570-2 0  9995","TLE_LINE2":"2 44917 052.9989 288.0346 0000706 109.6424 255.1395 15.05560527001781"},{"CCSDS_OMM_VERS":"2.0","COMMENT":"GENERATED VIA SPACE-TRACK.ORG API","CREATION_DATE":"2020-09-25T14:46:10","ORIGINATOR":"18 SPCS","OBJECT_NAME":"STARLINK-1098","OBJECT_ID":"2020-001D","CENTER_NAME":"EARTH","REF_FRAME":"TEME","TIME_SYSTEM":"UTC","MEAN_ELEMENT_THEORY":"SGP4","EPOCH":"2020-09-25T14:00:01.000224","MEAN_MOTION":"15.05574042","ECCENTRICITY":"0.00007470","INCLINATION":"52.9989","RA_OF_ASC_NODE":"285.0444","ARG_OF_PERICENTER":"83.0850","MEAN_ANOMALY":"297.0399","EPHEMERIS_TYPE":"0","CLASSIFICATION_TYPE":"U","NORAD_CAT_ID":"44917","ELEMENT_SET_NO":"999","REV_AT_EPOCH":"3975","BSTAR":"0.00260560000000","MEAN_MOTION_DOT":"0.00037882","MEAN_MOTION_DDOT":"0.0000000000000","SEMIMAJOR_AXIS":"6927.881","PERIOD":"95.644","APOAPSIS":"550.263","PERIAPSIS":"549.228","OBJECT_TYPE":"PAYLOAD","RCS_SIZE":"LARGE","COUNTRY_CODE":"US","LAUNCH_DATE":"2020-01-07","SITE":"AFETR","DECAY_DATE":null,"FILE":"2833703","GP_ID":"162116593","TLE_LINE0":"0 STARLINK-1098","TLE_LINE1":"1 44917U 20001D   20269.58334491  .00037882  00000-0  26056-2 0  9993","TLE_LINE2":"2 44917  52.9989 285.0444 0000747  83.0850 297.0399 15.05574042 39754"},{"CCSDS_OMM_VERS":"2.0","COMMENT":"GENERATED VIA SPACE-TRACK.ORG API","CREATION_DATE":"2020-09-26T00:20:19","ORIGINATOR":"18 SPCS","OBJECT_NAME":"STARLINK-1098","OBJECT_ID":"2020-001D","CENTER_NAME":"EARTH","REF_FRAME":"TEME","TIME_SYSTEM":"UTC","MEAN_ELEMENT_THEORY":"SGP4","EPOCH":"2020-09-25T22:00:01.999584","MEAN_MOTION":"15.05563091","ECCENTRICITY":"0.00006830","INCLINATION":"52.9990","RA_OF_ASC_NODE":"283.5454","ARG_OF_PERICENTER":"101.9446","MEAN_ANOMALY":"285.9595","EPHEMERIS_TYPE":"0","CLASSIFICATION_TYPE":"U","NORAD_CAT_ID":"44917","ELEMENT_SET_NO":"999","REV_AT_EPOCH":"176","BSTAR":"0.00303480000000","MEAN_MOTION_DOT":"0.00044195","MEAN_MOTION_DDOT":"0.0000000000000","SEMIMAJOR_AXIS":"6927.914","PERIOD":"95.645","APOAPSIS":"550.252","PERIAPSIS":"549.306","OBJECT_TYPE":"PAYLOAD","RCS_SIZE":"LARGE","COUNTRY_CODE":"US","LAUNCH_DATE":"2020-01-07","SITE":"AFETR","DECAY_DATE":null,"FILE":"2834144","GP_ID":"162164685","TLE_LINE0":"0 STARLINK-1098","TLE_LINE1":"1 44917U 20001D   20269.91668981 +.00044195 +00000-0 +30348-2 0  9998","TLE_LINE2":"2 44917 052.9990 283.5454 0000683 101.9446 285.9595 15.05563091001766"},{"CCSDS_OMM_VERS":"2.0","COMMENT":"GENERATED VIA SPACE-TRACK.ORG API","CREATION_DATE":"2020-09-26T06:36:10","ORIGINATOR":"18 SPCS","OBJECT_NAME":"STARLINK-1098","OBJECT_ID":"2020-001D","CENTER_NAME":"EARTH","REF_FRAME":"TEME","TIME_SYSTEM":"UTC","MEAN_ELEMENT_THEORY":"SGP4","EPOCH":"2020-09-26T04:15:00.767808","MEAN_MOTION":"15.05587474","ECCENTRICITY":"0.00006720","INCLINATION":"53.0001","RA_OF_ASC_NODE":"282.3759","ARG_OF_PERICENTER":"98.2952","MEAN_ANOMALY":"261.8112","EPHEMERIS_TYPE":"0","CLASSIFICATION_TYPE":"U","NORAD_CAT_ID":"44917","ELEMENT_SET_NO":"999","REV_AT_EPOCH":"3984","BSTAR":"0.00003805100000","MEAN_MOTION_DOT":"0.00000276","MEAN_MOTION_DDOT":"0.0000000000000","SEMIMAJOR_AXIS":"6927.839","PERIOD":"95.643","APOAPSIS":"550.170","PERIAPSIS":"549.239","OBJECT_TYPE":"PAYLOAD","RCS_SIZE":"LARGE","COUNTRY_CODE":"US","LAUNCH_DATE":"2020-01-07","SITE":"AFETR","DECAY_DATE":null,"FILE":"2834436","GP_ID":"162193559","TLE_LINE0":"0 STARLINK-1098","TLE_LINE1":"1 44917U 20001D   20270.17709222  .00000276  00000-0  38051-4 0  9995","TLE_LINE2":"2 44917  53.0001 282.3759 0000672  98.2952 261.8112 15.05587474 39843"},{"CCSDS_OMM_VERS":"2.0","COMMENT":"GENERATED VIA SPACE-TRACK.ORG API","CREATION_DATE":"2020-09-26T18:43:24","ORIGINATOR":"18 SPCS","OBJECT_NAME":"STARLINK-1098","OBJECT_ID":"2020-001D","CENTER_NAME":"EARTH","REF_FRAME":"TEME","TIME_SYSTEM":"UTC","MEAN_ELEMENT_THEORY":"SGP4","EPOCH":"2020-09-26T14:00:09.999648","MEAN_MOTION":"15.05595023","ECCENTRICITY":"0.00007010","INCLINATION":"52.9988","RA_OF_ASC_NODE":"280.5538","ARG_OF_PERICENTER":"74.9821","MEAN_ANOMALY":"328.8386","EPHEMERIS_TYPE":"0","CLASSIFICATION_TYPE":"U","NORAD_CAT_ID":"44917","ELEMENT_SET_NO":"999","REV_AT_EPOCH":"176","BSTAR":"-0.00013413000000","MEAN_MOTION_DOT":"-0.00002233","MEAN_MOTION_DDOT":"0.0000000000000","SEMIMAJOR_AXIS":"6927.816","PERIOD":"95.643","APOAPSIS":"550.167","PERIAPSIS":"549.196","OBJECT_TYPE":"PAYLOAD","RCS_SIZE":"LARGE","COUNTRY_CODE":"US","LAUNCH_DATE":"2020-01-07","SITE":"AFETR","DECAY_DATE":null,"FILE":"2834887","GP_ID":"162222298","TLE_LINE0":"0 STARLINK-1098","TLE_LINE1":"1 44917U 20001D   20270.58344907 -.00002233 +00000-0 -13413-3 0  9996","TLE_LINE2":"2 44917 052.9988 280.5538 0000701 074.9821 328.8386 15.05595023001765"},{"CCSDS_OMM_VERS":"2.0","COMMENT":"GENERATED VIA SPACE-TRACK.ORG API","CREATION_DATE":"2020-09-27T01:45:27","ORIGINATOR":"18 SPCS","OBJECT_NAME":"STARLINK-1098","OBJECT_ID":"2020-001D","CENTER_NAME":"EARTH","REF_FRAME":"TEME","TIME_SYSTEM":"UTC","MEAN_ELEMENT_THEORY":"SGP4","EPOCH":"2020-09-26T22:00:00.999936","MEAN_MOTION":"15.05570064","ECCENTRICITY":"0.00006870","INCLINATION":"52.9990","RA_OF_ASC_NODE":"279.0562","ARG_OF_PERICENTER":"96.2712","MEAN_ANOMALY":"314.7094","EPHEMERIS_TYPE":"0","CLASSIFICATION_TYPE":"U","NORAD_CAT_ID":"44917","ELEMENT_SET_NO":"999","REV_AT_EPOCH":"176","BSTAR":"0.00305730000000","MEAN_MOTION_DOT":"0.00044535","MEAN_MOTION_DDOT":"0.0000000000000","SEMIMAJOR_AXIS":"6927.893","PERIOD":"95.644","APOAPSIS":"550.234","PERIAPSIS":"549.282","OBJECT_TYPE":"PAYLOAD","RCS_SIZE":"LARGE","COUNTRY_CODE":"US","LAUNCH_DATE":"2020-01-07","SITE":"AFETR","DECAY_DATE":null,"FILE":"2835286","GP_ID":"162250198","TLE_LINE0":"0 STARLINK-1098","TLE_LINE1":"1 44917U 20001D   20270.91667824 +.00044535 +00000-0 +30573-2 0  9993","TLE_LINE2":"2 44917 052.9990 279.0562 0000687 096.2712 314.7094 15.05570064001765"},{"CCSDS_OMM_VERS":"2.0","COMMENT":"GENERATED VIA SPACE-TRACK.ORG API","CREATION_DATE":"2020-09-27T06:36:10","ORIGINATOR":"18 SPCS","OBJECT_NAME":"STARLINK-1098","OBJECT_ID":"2020-001D","CENTER_NAME":"EARTH","REF_FRAME":"TEME","TIME_SYSTEM":"UTC","MEAN_ELEMENT_THEORY":"SGP4","EPOCH":"2020-09-27T06:00:00.999648","MEAN_MOTION":"15.05608478","ECCENTRICITY":"0.00007550","INCLINATION":"52.9990","RA_OF_ASC_NODE":"277.5613","ARG_OF_PERICENTER":"82.1812","MEAN_ANOMALY":"336.5081","EPHEMERIS_TYPE":"0","CLASSIFICATION_TYPE":"U","NORAD_CAT_ID":"44917","ELEMENT_SET_NO":"999","REV_AT_EPOCH":"4000","BSTAR":"-0.00193970000000","MEAN_MOTION_DOT":"-0.00028448","MEAN_MOTION_DDOT":"0.0000000000000","SEMIMAJOR_AXIS":"6927.775","PERIOD":"95.642","APOAPSIS":"550.163","PERIAPSIS":"549.117","OBJECT_TYPE":"PAYLOAD","RCS_SIZE":"LARGE","COUNTRY_CODE":"US","LAUNCH_DATE":"2020-01-07","SITE":"AFETR","DECAY_DATE":null,"FILE":"2835488","GP_ID":"162277495","TLE_LINE0":"0 STARLINK-1098","TLE_LINE1":"1 44917U 20001D   20271.25001157 -.00028448  00000-0 -19397-2 0  9990","TLE_LINE2":"2 44917  52.9990 277.5613 0000755  82.1812 336.5081 15.05608478 40005"},{"CCSDS_OMM_VERS":"2.0","COMMENT":"GENERATED VIA SPACE-TRACK.ORG API","CREATION_DATE":"2020-09-27T17:11:31","ORIGINATOR":"18 SPCS","OBJECT_NAME":"STARLINK-1098","OBJECT_ID":"2020-001D","CENTER_NAME":"EARTH","REF_FRAME":"TEME","TIME_SYSTEM":"UTC","MEAN_ELEMENT_THEORY":"SGP4","EPOCH":"2020-09-27T12:06:49.096224","MEAN_MOTION":"15.05591803","ECCENTRICITY":"0.00006510","INCLINATION":"53.0001","RA_OF_ASC_NODE":"276.4157","ARG_OF_PERICENTER":"88.5340","MEAN_ANOMALY":"271.5723","EPHEMERIS_TYPE":"0","CLASSIFICATION_TYPE":"U","NORAD_CAT_ID":"44917","ELEMENT_SET_NO":"999","REV_AT_EPOCH":"4004","BSTAR":"0.00004456700000","MEAN_MOTION_DOT":"0.00000371","MEAN_MOTION_DDOT":"0.0000000000000","SEMIMAJOR_AXIS":"6927.826","PERIOD":"95.643","APOAPSIS":"550.142","PERIAPSIS":"549.240","OBJECT_TYPE":"PAYLOAD","RCS_SIZE":"LARGE","COUNTRY_CODE":"US","LAUNCH_DATE":"2020-01-07","SITE":"AFETR","DECAY_DATE":null,"FILE":"2836004","GP_ID":"162308783","TLE_LINE0":"0 STARLINK-1098","TLE_LINE1":"1 44917U 20001D   20271.50473491 +.00000371 +00000-0 +44567-4 0  9994","TLE_LINE2":"2 44917 053.0001 276.4157 0000651 088.5340 271.5723 15.05591803040040"}]